{"type": "FeatureCollection", "features": [ {"type": "Feature", "properties": {"norad_id": 67059, "name": "HULIANWANG DIGUI-119", "group": "last-30-days", "lat": -47.64588288296944, "lon": -88.02517006676034, "alt_km": 801.1269952549846, "timestamp": "2025-12-20T14:38:00.692353+00:00", "meta": {"OBJECT_NAME": "HULIANWANG DIGUI-119", "OBJECT_ID": "2025-295A", "EPOCH": "2025-12-17T11:16:29.850816", "MEAN_MOTION": 14.25569756, "ECCENTRICITY": 0.00138963, "INCLINATION": 50.007, "RA_OF_ASC_NODE": 352.2731, "ARG_OF_PERICENTER": 264.5159, "MEAN_ANOMALY": 95.417, "EPHEMERIS_TYPE": 0, "CLASSIFICATION_TYPE": "U", "NORAD_CAT_ID": 67059, "ELEMENT_SET_NO": 999, "REV_AT_EPOCH": 79, "BSTAR": -9.003402e-06, "MEAN_MOTION_DOT": -1.82e-06, "MEAN_MOTION_DDOT": 0}, "tle": {"line1": "1 67059U 25295A   25351.46978994 -.00000182  00000+0 -90034-5 0  9995", "line2": "2 67059  50.0070 352.2731 0013896 264.5159  95.4170 14.25569756   795"}}, "geometry": {"type": "Point", "coordinates": [-88.02517006676034, -47.64588288296944]}}, {"type": "Feature", "properties": {"norad_id": 67060, "name": "HULIANWANG DIGUI-120", "group": "last-30-days", "lat": -46.227057182751075, "lon": -82.18744746887425, "alt_km": 801.2798330591722, "timestamp": "2025-12-20T14:38:00.692363+00:00", "meta": {"OBJECT_NAME": "HULIANWANG DIGUI-120", "OBJECT_ID": "2025-295B", "EPOCH": "2025-12-15T17:12:24.401376", "MEAN_MOTION": 14.25706335, "ECCENTRICITY": 0.00132237, "INCLINATION": 50.005, "RA_OF_ASC_NODE": 359.6709, "ARG_OF_PERICENTER": 257.265, "MEAN_ANOMALY": 102.6786, "EPHEMERIS_TYPE": 0, "CLASSIFICATION_TYPE": "U", "NORAD_CAT_ID": 67060, "ELEMENT_SET_NO": 999, "REV_AT_EPOCH": 54, "BSTAR": 6.6896441e-05, "MEAN_MOTION_DOT": 0, "MEAN_MOTION_DDOT": 0}, "tle": {"line1": "1 67060U 25295B   25349.71694909  .00000000  00000+0  66896-4 0  9998", "line2": "2 67060  50.0050 359.6709 0013223 257.2650 102.6786 14.25706335   543"}}, "geometry": {"type": "Point", "coordinates": [-82.18744746887425, -46.227057182751075]}}, {"type": "Feature", "properties": {"norad_id": 67061, "name": "HULIANWANG DIGUI-121", "group": "last-30-days", "lat": -46.024081440877396, "lon": -81.48613910626604, "alt_km": 801.230554524911, "timestamp": "2025-12-20T14:38:00.692387+00:00", "meta": {"OBJECT_NAME": "HULIANWANG DIGUI-121", "OBJECT_ID": "2025-295C", "EPOCH": "2025-12-15T17:12:22.292352", "MEAN_MOTION": 14.25729079, "ECCENTRICITY": 0.00132682, "INCLINATION": 50.0012, "RA_OF_ASC_NODE": 359.6606, "ARG_OF_PERICENTER": 256.3366, "MEAN_ANOMALY": 103.6071, "EPHEMERIS_TYPE": 0, "CLASSIFICATION_TYPE": "U", "NORAD_CAT_ID": 67061, "ELEMENT_SET_NO": 999, "REV_AT_EPOCH": 54, "BSTAR": 6.6638352e-05, "MEAN_MOTION_DOT": -1e-08, "MEAN_MOTION_DDOT": 0}, "tle": {"line1": "1 67061U 25295C   25349.71692468 -.00000001  00000+0  66638-4 0  9993", "line2": "2 67061  50.0012 359.6606 0013268 256.3366 103.6071 14.25729079   549"}}, "geometry": {"type": "Point", "coordinates": [-81.48613910626604, -46.024081440877396]}}, {"type": "Feature", "properties": {"norad_id": 67062, "name": "HULIANWANG DIGUI-122", "group": "last-30-days", "lat": -45.663594570971355, "lon": -80.21512117147502, "alt_km": 800.9565436589346, "timestamp": "2025-12-20T14:38:00.692400+00:00", "meta": {"OBJECT_NAME": "HULIANWANG DIGUI-122", "OBJECT_ID": "2025-295D", "EPOCH": "2025-12-20T04:51:46.118304", "MEAN_MOTION": 14.25755607, "ECCENTRICITY": 0.00131636, "INCLINATION": 50.0054, "RA_OF_ASC_NODE": 340.7259, "ARG_OF_PERICENTER": 279.5231, "MEAN_ANOMALY": 80.4195, "EPHEMERIS_TYPE": 0, "CLASSIFICATION_TYPE": "U", "NORAD_CAT_ID": 67062, "ELEMENT_SET_NO": 999, "REV_AT_EPOCH": 118, "BSTAR": 0.00010552323, "MEAN_MOTION_DOT": 9.2e-07, "MEAN_MOTION_DDOT": 0}, "tle": {"line1": "1 67062U 25295D   25354.20261711  .00000092  00000+0  10552-3 0  9999", "line2": "2 67062  50.0054 340.7259 0013163 279.5231  80.4195 14.25755607  1189"}}, "geometry": {"type": "Point", "coordinates": [-80.21512117147502, -45.663594570971355]}}, {"type": "Feature", "properties": {"norad_id": 67063, "name": "HULIANWANG DIGUI-123", "group": "last-30-days", "lat": -43.92443487108404, "lon": -74.95014668312295, "alt_km": 801.0944373896364, "timestamp": "2025-12-20T14:38:00.692410+00:00", "meta": {"OBJECT_NAME": "HULIANWANG DIGUI-123", "OBJECT_ID": "2025-295E", "EPOCH": "2025-12-20T04:50:40.234848", "MEAN_MOTION": 14.25888399, "ECCENTRICITY": 0.00124786, "INCLINATION": 50.0061, "RA_OF_ASC_NODE": 340.7243, "ARG_OF_PERICENTER": 278.7083, "MEAN_ANOMALY": 81.2417, "EPHEMERIS_TYPE": 0, "CLASSIFICATION_TYPE": "U", "NORAD_CAT_ID": 67063, "ELEMENT_SET_NO": 999, "REV_AT_EPOCH": 118, "BSTAR": 0.00010184331, "MEAN_MOTION_DOT": 8.4e-07, "MEAN_MOTION_DDOT": 0}, "tle": {"line1": "1 67063U 25295E   25354.20185457  .00000084  00000+0  10184-3 0  9994", "line2": "2 67063  50.0061 340.7243 0012478 278.7083  81.2417 14.25888399  1186"}}, "geometry": {"type": "Point", "coordinates": [-74.95014668312295, -43.92443487108404]}}, {"type": "Feature", "properties": {"norad_id": 67064, "name": "HULIANWANG DIGUI-124", "group": "last-30-days", "lat": -43.04482046888253, "lon": -72.65415485293592, "alt_km": 801.468373479157, "timestamp": "2025-12-20T14:38:00.692421+00:00", "meta": {"OBJECT_NAME": "HULIANWANG DIGUI-124", "OBJECT_ID": "2025-295F", "EPOCH": "2025-12-20T04:50:10.127040", "MEAN_MOTION": 14.25949135, "ECCENTRICITY": 0.00120925, "INCLINATION": 50.0035, "RA_OF_ASC_NODE": 340.7089, "ARG_OF_PERICENTER": 273.4441, "MEAN_ANOMALY": 86.509, "EPHEMERIS_TYPE": 0, "CLASSIFICATION_TYPE": "U", "NORAD_CAT_ID": 67064, "ELEMENT_SET_NO": 999, "REV_AT_EPOCH": 118, "BSTAR": -0.00019346454, "MEAN_MOTION_DOT": -6.25e-06, "MEAN_MOTION_DDOT": 0}, "tle": {"line1": "1 67064U 25295F   25354.20150610 -.00000625  00000+0 -19346-3 0  9990", "line2": "2 67064  50.0035 340.7089 0012092 273.4441  86.5090 14.25949135  1189"}}, "geometry": {"type": "Point", "coordinates": [-72.65415485293592, -43.04482046888253]}}, {"type": "Feature", "properties": {"norad_id": 67065, "name": "HULIANWANG DIGUI-125", "group": "last-30-days", "lat": -42.980732972925736, "lon": -72.50043413757996, "alt_km": 801.0329830190431, "timestamp": "2025-12-20T14:38:00.692433+00:00", "meta": {"OBJECT_NAME": "HULIANWANG DIGUI-125", "OBJECT_ID": "2025-295G", "EPOCH": "2025-12-20T04:50:07.838304", "MEAN_MOTION": 14.25954033, "ECCENTRICITY": 0.00122712, "INCLINATION": 50.0011, "RA_OF_ASC_NODE": 340.7071, "ARG_OF_PERICENTER": 279.4128, "MEAN_ANOMALY": 80.5399, "EPHEMERIS_TYPE": 0, "CLASSIFICATION_TYPE": "U", "NORAD_CAT_ID": 67065, "ELEMENT_SET_NO": 999, "REV_AT_EPOCH": 118, "BSTAR": 9.774869e-05, "MEAN_MOTION_DOT": 7.5e-07, "MEAN_MOTION_DDOT": 0}, "tle": {"line1": "1 67065U 25295G   25354.20147961  .00000075  00000+0  97749-4 0  9997", "line2": "2 67065  50.0011 340.7071 0012271 279.4128  80.5399 14.25954033  1181"}}, "geometry": {"type": "Point", "coordinates": [-72.50043413757996, -42.980732972925736]}}, {"type": "Feature", "properties": {"norad_id": 67066, "name": "HULIANWANG DIGUI-126", "group": "last-30-days", "lat": -40.693006894359655, "lon": -67.246099054849, "alt_km": 801.3940650829927, "timestamp": "2025-12-20T14:38:00.692446+00:00", "meta": {"OBJECT_NAME": "HULIANWANG DIGUI-126", "OBJECT_ID": "2025-295H", "EPOCH": "2025-12-20T04:48:55.302048", "MEAN_MOTION": 14.2609701, "ECCENTRICITY": 0.00114366, "INCLINATION": 50.0014, "RA_OF_ASC_NODE": 340.7019, "ARG_OF_PERICENTER": 276.4832, "MEAN_ANOMALY": 83.478, "EPHEMERIS_TYPE": 0, "CLASSIFICATION_TYPE": "U", "NORAD_CAT_ID": 67066, "ELEMENT_SET_NO": 999, "REV_AT_EPOCH": 118, "BSTAR": 9.5170036e-05, "MEAN_MOTION_DOT": 6.9e-07, "MEAN_MOTION_DDOT": 0}, "tle": {"line1": "1 67066U 25295H   25354.20064007  .00000069  00000+0  95170-4 0  9996", "line2": "2 67066  50.0014 340.7019 0011436 276.4832  83.4780 14.26097010  1188"}}, "geometry": {"type": "Point", "coordinates": [-67.246099054849, -40.693006894359655]}}, {"type": "Feature", "properties": {"norad_id": 67067, "name": "HULIANWANG DIGUI-127", "group": "last-30-days", "lat": -38.33640046187964, "lon": -62.62166358871698, "alt_km": 801.1529790252916, "timestamp": "2025-12-20T14:38:00.692456+00:00", "meta": {"OBJECT_NAME": "HULIANWANG DIGUI-127", "OBJECT_ID": "2025-295J", "EPOCH": "2025-12-20T04:47:47.220576", "MEAN_MOTION": 14.2625118, "ECCENTRICITY": 0.00108905, "INCLINATION": 50.0054, "RA_OF_ASC_NODE": 340.7049, "ARG_OF_PERICENTER": 280.2545, "MEAN_ANOMALY": 79.7141, "EPHEMERIS_TYPE": 0, "CLASSIFICATION_TYPE": "U", "NORAD_CAT_ID": 67067, "ELEMENT_SET_NO": 999, "REV_AT_EPOCH": 118, "BSTAR": -0.00025971923, "MEAN_MOTION_DOT": -7.88e-06, "MEAN_MOTION_DDOT": 0}, "tle": {"line1": "1 67067U 25295J   25354.19985209 -.00000788  00000+0 -25972-3 0  9993", "line2": "2 67067  50.0054 340.7049 0010890 280.2545  79.7141 14.26251180  1182"}}, "geometry": {"type": "Point", "coordinates": [-62.62166358871698, -38.33640046187964]}}, {"type": "Feature", "properties": {"norad_id": 67068, "name": "CZ-12 R/B", "group": "last-30-days", "lat": 32.990216094044854, "lon": 11.166852645330101, "alt_km": 769.642094959715, "timestamp": "2025-12-20T14:38:00.692466+00:00", "meta": {"OBJECT_NAME": "CZ-12 R/B", "OBJECT_ID": "2025-295K", "EPOCH": "2025-12-19T23:26:40.461216", "MEAN_MOTION": 14.41129023, "ECCENTRICITY": 0.005688, "INCLINATION": 49.9944, "RA_OF_ASC_NODE": 340.8721, "ARG_OF_PERICENTER": 161.8417, "MEAN_ANOMALY": 198.4551, "EPHEMERIS_TYPE": 0, "CLASSIFICATION_TYPE": "U", "NORAD_CAT_ID": 67068, "ELEMENT_SET_NO": 999, "REV_AT_EPOCH": 115, "BSTAR": 1.1975e-05, "MEAN_MOTION_DOT": -1.29e-06, "MEAN_MOTION_DDOT": 0}, "tle": {"line1": "1 67068U 25295K   25353.97685719 -.00000129  00000+0  11975-4 0  9999", "line2": "2 67068  49.9944 340.8721 0056880 161.8417 198.4551 14.41129023  1155"}}, "geometry": {"type": "Point", "coordinates": [11.166852645330101, 32.990216094044854]}}]}